NORAD_CAT_ID,OBJECT_NAME,OBJECT_TYPE,EPOCH,MEAN_MOTION,ECCENTRICITY,INCLINATION,RA_OF_ASC_NODE,ARG_OF_PERICENTER,MEAN_ANOMALY,BSTAR,MEAN_MOTION_DOT,MEAN_MOTION_DDOT,TLE_LINE0,TLE_LINE1,TLE_LINE2,SEMIMAJOR_AXIS,PERIOD,APOGEE,PERIGEE,DECAYED
53288.0,STARLINK-4162,PAYLOAD,2022-08-08 12:42:11,15.73278747,0.0001439,53.2191,329.0896,52.6749,307.4402,0.00033774,0.00047206,0.0,0 STARLINK-4162,1 53288U 22086AY  22220.52930114  .00047206  00000-0  33774-3 0  9993,2 53288  53.2191 329.0896 0001439  52.6749 307.4402 15.73278747  3156,6727.670999999999,91.529,350.504,348.5680000000001,0.0
53288.0,STARLINK-4162,PAYLOAD,2022-08-08 20:00:01,15.73267079,0.000156,53.219,327.5868,39.4745,243.7136,-0.00053362,-0.00075062,0.0,0 STARLINK-4162,1 53288U 22086AY  22220.83335648 -.00075062  00000-0 -53362-3 0  9996,2 53288  53.2190 327.5868 0001560  39.4745 243.7136 15.73267079  3030,6727.704000000002,91.529,350.61800000000005,348.519,0.0
53288.0,STARLINK-4162,PAYLOAD,2022-08-08 22:00:00,15.73269466,0.0001565999999999,53.2191,327.1739,40.8503,354.5184,-0.00077593,-0.00108449,0.0,0 STARLINK-4162,1 53288U 22086AY  22220.91667824 -.00108449  00000-0 -77593-3 0  9997,2 53288  53.2191 327.1739 0001566  40.8503 354.5184 15.73269466  1302,6727.696999999999,91.529,350.616,348.509,0.0
53288.0,STARLINK-4162,PAYLOAD,2022-08-09 14:00:01,15.73191702,0.0001789,53.2193,323.8755,43.0697,170.1355,-0.00051333,-0.00072028,0.0,0 STARLINK-4162,1 53288U 22086AY  22221.58334491 -.00072028  00000-0 -51333-3 0  9999,2 53288  53.2193 323.8755 0001789  43.0697 170.1355 15.73191702  1300,6727.919,91.534,350.987,348.58,0.0
53288.0,STARLINK-4162,PAYLOAD,2022-08-09 22:00:00,15.73143416,0.0001751,53.2189,322.2256,43.4896,258.5971,-0.00058304,-0.00081466,0.0,0 STARLINK-4162,1 53288U 22086AY  22221.91667824 -.00081466  00000-0 -58304-3 0  9996,2 53288  53.2189 322.2256 0001751  43.4896 258.5971 15.73143416  3203,6728.057,91.536,351.1,348.74300000000005,0.0
53288.0,STARLINK-4162,PAYLOAD,2022-08-10 06:00:00,15.73086739,0.0001694,53.2192,320.5753,51.7916,339.1177,0.0005713999999999,0.00079949,0.0,0 STARLINK-4162,1 53288U 22086AY  22222.25001157  .00079949  00000-0  57140-3 0  9993,2 53288  53.2192 320.5753 0001694  51.7916 339.1177 15.73086739  3265,6728.218000000003,91.54,351.223,348.9430000000001,0.0
53288.0,STARLINK-4162,PAYLOAD,2022-08-10 14:00:01,15.73120557,0.0001876999999999,53.2191,318.9283,45.1128,74.6109,0.00024143,0.00033283,0.0,0 STARLINK-4162,1 53288U 22086AY  22222.58334491  .00033283  00000-0  24143-3 0  9997,2 53288  53.2191 318.9283 0001877  45.1128  74.6109 15.73120557  1304,6728.121999999999,91.538,351.25,348.724,0.0
53288.0,STARLINK-4162,PAYLOAD,2022-08-10 16:00:00,15.73108043,0.0001921999999999,53.2194,318.5164,43.5159,188.4221,0.00054675,0.00076513,0.0,0 STARLINK-4162,1 53288U 22086AY  22222.66667824  .00076513  00000-0  54675-3 0  9991,2 53288  53.2194 318.5164 0001922  43.5159 188.4221 15.73108043  3327,6728.156999999997,91.539,351.316,348.72900000000016,0.0
53288.0,STARLINK-4162,PAYLOAD,2022-08-10 22:00:00,15.73174629,0.0001854,53.2193,317.2783,44.0442,164.5274,-2.317e-06,-9.45e-06,0.0,0 STARLINK-4162,1 53288U 22086AY  22222.91667824 -.00000945  00000-0 -23170-5 0  9995,2 53288  53.2193 317.2783 0001854  44.0442 164.5274 15.73174629  1306,6727.968000000003,91.535,351.08,348.585,0.0
53288.0,STARLINK-4162,PAYLOAD,2022-08-11 06:00:02,15.73202927,0.0001946,53.2176,315.6227,50.1908,247.493,2.3901e-05,2.735e-05,0.0,0 STARLINK-4162,1 53288U 22086AY  22223.25002315  .00002735  00000-0  23901-4 0  9999,2 53288  53.2176 315.6227 0001946  50.1908 247.4930 15.73202927  3416,6727.887,91.533,351.061,348.4430000000001,0.0
53288.0,STARLINK-4162,PAYLOAD,2022-08-11 14:00:01,15.73207913,0.0002072,53.2195,313.9806,44.6574,341.7415,0.00024276,0.00033598,0.0,0 STARLINK-4162,1 53288U 22086AY  22223.58334491  .00033598  00000-0  24276-3 0  9994,2 53288  53.2195 313.9806 0002072  44.6574 341.7415 15.73207913  1301,6727.873000000001,91.533,351.13199999999995,348.344,0.0
53288.0,STARLINK-4162,PAYLOAD,2022-08-11 22:00:00,15.73252485,0.0001965,53.2189,312.3302,43.9595,71.3871,-5.7746000000000014e-06,-1.434e-05,0.0,0 STARLINK-4162,1 53288U 22086AY  22223.91667824 -.00001434  00000-0 -57746-5 0  9996,2 53288  53.2189 312.3302 0001965  43.9595  71.3871 15.73252485  3525,6727.746,91.53,350.93300000000005,348.289,0.0
53288.0,STARLINK-4162,PAYLOAD,2022-08-12 04:00:00,15.73281124,0.0001806,53.2189,311.0921,46.7121,45.4002,-1.9567e-05,-3.376e-05,0.0,0 STARLINK-4162,1 53288U 22086AY  22224.16667824 -.00003376  00000-0 -19567-4 0  9999,2 53288  53.2189 311.0921 0001806  46.7121  45.4002 15.73281124  3562,6727.6640000000025,91.528,350.744,348.314,0.0
53288.0,STARLINK-4162,PAYLOAD,2022-08-12 14:00:01,15.7327788,0.0001863,53.2189,309.0325,35.2938,258.1085,-0.00034677,-0.00049169,0.0,0 STARLINK-4162,1 53288U 22086AY  22224.58334491 -.00049169  00000-0 -34677-3 0  9994,2 53288  53.2189 309.0325 0001863  35.2938 258.1085 15.73277880  1307,6727.6730000000025,91.529,350.792,348.285,0.0
53288.0,STARLINK-4162,PAYLOAD,2022-08-12 20:00:01,15.7327132,0.0001823,53.2187,307.7946,31.8476,238.3689,-0.0006649,-0.00093197,0.0,0 STARLINK-4162,1 53288U 22086AY  22224.83335648 -.00093197  00000-0 -66490-3 0  9995,2 53288  53.2187 307.7946 0001823  31.8476 238.3689 15.73271320  3668,6727.691999999999,91.529,350.783,348.33,0.0
53288.0,STARLINK-4162,PAYLOAD,2022-08-12 22:00:01,15.73263147,0.0001771999999999,53.219,307.3817,32.7811,349.6829,-0.00072346,-0.00101219,0.0,0 STARLINK-4162,1 53288U 22086AY  22224.91668981 -.00101219  00000-0 -72346-3 0  9995,2 53288  53.2190 307.3817 0001772  32.7811 349.6829 15.73263147  1300,6727.715,91.53,350.772,348.38800000000015,0.0
53288.0,STARLINK-4162,PAYLOAD,2022-08-13 14:00:01,15.73125438,0.0002000999999999,53.219,304.0842,29.9692,170.2855,0.00039845,0.00055493,0.0,0 STARLINK-4162,1 53288U 22086AY  22225.58334491  .00055493  00000-0  39845-3 0  9992,2 53288  53.2190 304.0842 0002001  29.9692 170.2855 15.73125438  3784,6728.108,91.538,351.319,348.626,0.0
53288.0,STARLINK-4162,PAYLOAD,2022-08-13 22:00:00,15.73176921,0.0001864,53.2184,302.4336,31.1234,257.9909,3.9847e-05,4.9700000000000015e-05,0.0,0 STARLINK-4162,1 53288U 22086AY  22225.91667824  .00004970  00000-0  39847-4 0  9995,2 53288  53.2184 302.4336 0001864  31.1234 257.9909 15.73176921  1302,6727.9609999999975,91.535,351.08,348.57199999999995,0.0
53288.0,STARLINK-4162,PAYLOAD,2022-08-14 14:00:01,15.73226472,0.0002017,53.2183,299.1363,28.4469,78.5245,0.00016417,0.00022508,0.0,0 STARLINK-4162,1 53288U 22086AY  22226.58334491  .00022508  00000-0  16417-3 0  9994,2 53288  53.2183 299.1363 0002017  28.4469  78.5245 15.73226472  1300,6727.82,91.532,351.042,348.32800000000015,0.0
53288.0,STARLINK-4162,PAYLOAD,2022-08-14 22:00:00,15.73227959,0.0001896999999999,53.2184,297.4851,25.9179,170.0349,-0.00018277,-0.00026224,0.0,0 STARLINK-4162,1 53288U 22086AY  22226.91667824 -.00026224  00000-0 -18277-3 0  9997,2 53288  53.2184 297.4851 0001897  25.9179 170.0349 15.73227959  3990,6727.815,91.532,350.957,348.404,0.0
53288.0,STARLINK-4162,PAYLOAD,2022-08-15 14:00:01,15.73160632,0.0002266,53.2184,294.1876,31.0483,342.774,0.00048298,0.00067599,0.0,0 STARLINK-4162,1 53288U 22086AY  22227.58334491  .00067599  00000-0  48298-3 0  9996,2 53288  53.2184 294.1876 0002266  31.0483 342.7740 15.73160632  1308,6728.007,91.535,351.397,348.348,0.0
53288.0,STARLINK-4162,PAYLOAD,2022-08-15 22:00:00,15.732123499999998,0.0002072,53.2181,292.5365,30.969,71.7623,7.2779e-05,9.61e-05,0.0,0 STARLINK-4162,1 53288U 22086AY  22227.91667824  .00009610  00000-0  72779-4 0  9994,2 53288  53.2181 292.5365 0002072  30.9690  71.7623 15.73212350  1307,6727.86,91.532,351.119,348.331,0.0
53288.0,STARLINK-4162,PAYLOAD,2022-08-16 06:00:02,15.73232559,0.0001992,53.2182,290.8869,30.7662,160.9808,-0.00029579,-0.00041988,0.0,0 STARLINK-4162,1 53288U 22086AY  22228.25002315 -.00041988  00000-0 -29579-3 0  9995,2 53288  53.2182 290.8869 0001992  30.7662 160.9808 15.73232559  4206,6727.802,91.531,351.0080000000001,348.327,0.0
53288.0,STARLINK-4162,PAYLOAD,2022-08-16 14:00:01,15.73179933,0.0002218,53.218,289.2393,24.466,256.1626,0.00049822,0.00069828,0.0,0 STARLINK-4162,1 53288U 22086AY  22228.58334491  .00069828  00000-0  49822-3 0  9998,2 53288  53.2180 289.2393 0002218  24.4660 256.1626 15.73179933  1308,6727.9519999999975,91.534,351.31,348.325,0.0
53288.0,STARLINK-4162,PAYLOAD,2022-08-16 22:00:00,15.73226394,0.0001971,53.2182,287.5879,22.7817,346.7882,-0.00037175,-0.00052532,0.0,0 STARLINK-4162,1 53288U 22086AY  22228.91667824 -.00052532  00000-0 -37175-3 0  9998,2 53288  53.2182 287.5879 0001971  22.7817 346.7882 15.73226394  4307,6727.82,91.532,351.011,348.3590000000001,0.0
53288.0,STARLINK-4162,PAYLOAD,2022-08-17 06:00:02,15.73210899,0.0002029,53.2185,285.9382,23.9564,74.6098,0.00014524,0.00019821,0.0,0 STARLINK-4162,1 53288U 22086AY  22229.25002315  .00019821  00000-0  14524-3 0  9999,2 53288  53.2185 285.9382 0002029  23.9564  74.6098 15.73210899  4363,6727.864000000001,91.533,351.094,348.36400000000015,0.0
53288.0,STARLINK-4162,PAYLOAD,2022-08-17 14:00:01,15.73216233,0.0002365,53.2184,284.2906,23.3458,164.0876,-0.00010384,-0.00015181,0.0,0 STARLINK-4162,1 53288U 22086AY  22229.58334491 -.00015181  00000-0 -10384-3 0  9995,2 53288  53.2184 284.2906 0002365  23.3458 164.0876 15.73216233  4417,6727.849,91.532,351.305,348.12300000000016,0.0
53288.0,STARLINK-4162,PAYLOAD,2022-08-18 14:00:01,15.73249873,0.0002399,53.2181,279.3422,24.1168,70.184,-7.8964e-05,-0.00011714,0.0,0 STARLINK-4162,1 53288U 22086AY  22230.58334491 -.00011714  00000-0 -78964-4 0  9994,2 53288  53.2181 279.3422 0002399  24.1168  70.1840 15.73249873  1305,6727.753000000002,91.53,351.232,348.004,0.0
